{
    "links": {
        "self": "http://www.neowsapp.com/rest/v1/neo/3364306?api_key=iIulBulltgU6a56xZRHN4H3l9WmuAYTsLGpBGhQ2"
    },
    "id": "3364306",
    "neo_reference_id": "3364306",
    "name": "(2006 YX2)",
    "designation": "2006 YX2",
    "nasa_jpl_url": "http://ssd.jpl.nasa.gov/sbdb.cgi?sstr=3364306",
    "absolute_magnitude_h": 24.1,
    "estimated_diameter": {
        "kilometers": {
            "estimated_diameter_min": 0.040230458,
            "estimated_diameter_max": 0.0899580388
        },
        "meters": {
            "estimated_diameter_min": 40.2304579834,
            "estimated_diameter_max": 89.9580388169
        },
        "miles": {
            "estimated_diameter_min": 0.0249980399,
            "estimated_diameter_max": 0.0558973165
        },
        "feet": {
            "estimated_diameter_min": 131.9896957704,
            "estimated_diameter_max": 295.1379320721
        }
    },
    "is_potentially_hazardous_asteroid": false,
    "close_approach_data": [
        {
            "close_approach_date": "2004-12-18",
            "close_approach_date_full": "2004-Dec-18 08:08",
            "epoch_date_close_approach": 1103357280000,
            "relative_velocity": {
                "kilometers_per_second": "14.6152528409",
                "kilometers_per_hour": "52614.9102271583",
                "miles_per_hour": "32692.8590797584"
            },
            "miss_distance": {
                "astronomical": "0.1589712651",
                "lunar": "61.8398221239",
                "kilometers": "23781762.650165337",
                "miles": "14777302.0782101706"
            },
            "orbiting_body": "Earth"
        },
        {
            "close_approach_date": "2005-12-18",
            "close_approach_date_full": "2005-Dec-18 02:38",
            "epoch_date_close_approach": 1134873480000,
            "relative_velocity": {
                "kilometers_per_second": "14.8681937829",
                "kilometers_per_hour": "53525.4976185354",
                "miles_per_hour": "33258.6626730283"
            },
            "miss_distance": {
                "astronomical": "0.0960462055",
                "lunar": "37.3619739395",
                "kilometers": "14368307.764382285",
                "miles": "8928052.445494133"
            },
            "orbiting_body": "Earth"
        },
        {
            "close_approach_date": "2006-12-18",
            "close_approach_date_full": "2006-Dec-18 11:36",
            "epoch_date_close_approach": 1166441760000,
            "relative_velocity": {
                "kilometers_per_second": "15.4377520811",
                "kilometers_per_hour": "55575.9074919064",
                "miles_per_hour": "34532.7076301793"
            },
            "miss_distance": {
                "astronomical": "0.066338426",
                "lunar": "25.805647714",
                "kilometers": "9924087.22875262",
                "miles": "6166541.857601356"
            },
            "orbiting_body": "Earth"
        },
        {
            "close_approach_date": "2007-12-19",
            "close_approach_date_full": "2007-Dec-19 08:29",
            "epoch_date_close_approach": 1198052940000,
            "relative_velocity": {
                "kilometers_per_second": "16.3102646256",
                "kilometers_per_hour": "58716.9526520578",
                "miles_per_hour": "36484.4309409411"
            },
            "miss_distance": {
                "astronomical": "0.1051942852",
                "lunar": "40.9205769428",
                "kilometers": "15736841.002092524",
                "miles": "9778419.5673598712"
            },
            "orbiting_body": "Earth"
        },
        {
            "close_approach_date": "2008-12-19",
            "close_approach_date_full": "2008-Dec-19 17:07",
            "epoch_date_close_approach": 1229706420000,
            "relative_velocity": {
                "kilometers_per_second": "17.4814105756",
                "kilometers_per_hour": "62933.078072011",
                "miles_per_hour": "39104.167316467"
            },
            "miss_distance": {
                "astronomical": "0.1735003699",
                "lunar": "67.4916438911",
                "kilometers": "25955285.781252113",
                "miles": "16127866.7253526394"
            },
            "orbiting_body": "Earth"
        }
    ],
    "orbital_data": {
        "orbit_id": "6",
        "orbit_determination_date": "2017-04-06 09:07:17",
        "first_observation_date": "2006-12-22",
        "last_observation_date": "2006-12-23",
        "data_arc_in_days": 1,
        "observations_used": 16,
        "orbit_uncertainty": "9",
        "minimum_orbit_intersection": ".066117",
        "jupiter_tisserand_invariant": "5.920",
        "epoch_osculation": "2454092.5",
        "eccentricity": ".1659928031991594",
        "semi_major_axis": "1.008645257639276",
        "inclination": "28.72767181970019",
        "ascending_node_longitude": "88.61956070167062",
        "orbital_period": "370.0037309125032",
        "perihelion_distance": ".8412174038901943",
        "perihelion_argument": "245.2551087859259",
        "aphelion_distance": "1.176073111388358",
        "perihelion_time": "2453991.994619848201",
        "mean_anomaly": "97.78803247582327",
        "mean_motion": ".9729631620529015",
        "equinox": "J2000",
        "orbit_class": {
            "orbit_class_type": "APO",
            "orbit_class_description": "Near-Earth asteroid orbits which cross the Earth’s orbit similar to that of 1862 Apollo",
            "orbit_class_range": "a (semi-major axis) > 1.0 AU; q (perihelion) < 1.017 AU"
        }
    },
    "is_sentry_object": false
}